OBJECT_NAME,OBJECT_ID,EPOCH,MEAN_MOTION,ECCENTRICITY,INCLINATION,RA_OF_ASC_NODE,ARG_OF_PERICENTER,MEAN_ANOMALY,EPHEMERIS_TYPE,CLASSIFICATION_TYPE,NORAD_CAT_ID,ELEMENT_SET_NO,REV_AT_EPOCH,BSTAR,MEAN_MOTION_DOT,MEAN_MOTION_DDOT
INTELSAT 902 (IS-902),2001-039A,2026-06-18T12:41:02.392224,1.00271543,.0004307,6.1204,71.7676,12.4923,322.6674,0,U,26900,999,9070,0,-.292E-5,0
INTELSAT 904 (IS-904),2002-007A,2026-06-18T11:03:47.464128,1.00270286,.000653,6.9241,69.1697,5.9759,326.0004,0,U,27380,999,5177,0,-.235E-5,0
DIRECTV 5 (TEMPO 1),2002-023A,2026-06-18T10:03:38.852352,1.00271613,.0003143,4.8819,75.2944,13.6987,218.4628,0,U,27426,999,8813,0,-.65E-6,0
INTELSAT 905 (IS-905),2002-027A,2026-06-18T11:11:38.839200,1.00271956,.0003874,6.7576,69.7858,22.2862,205.3245,0,U,27438,999,5137,0,.85E-6,0
GALAXY 3C (G-3C),2002-030A,2026-06-18T09:02:54.336192,1.00271347,.0001601,3.7359,77.9598,30.5698,198.9629,0,U,27445,999,4650,0,-.16E-5,0
INTELSAT 906 (IS-906),2002-041A,2026-06-18T04:57:21.563712,1.00275136,.0004397,5.8051,72.9092,2.8775,329.1640,0,U,27513,999,8703,0,.4E-7,0
GALAXY 13 (HORIZONS-1),2003-044A,2026-06-18T15:37:56.150112,1.00271682,.0002227,1.4228,83.8471,355.5372,271.9735,0,U,27954,999,4658,0,.126E-5,0
INTELSAT 10-02,2004-022A,2026-06-18T14:37:42.737952,1.00271494,.0000089,0.0170,305.3898,226.0866,313.7894,0,U,28358,999,8057,0,-.17E-6,0
DIRECTV 8,2005-019A,2026-06-18T15:46:40.312128,1.00269879,.0002974,0.0194,12.3444,81.1360,291.0348,0,U,28659,999,7708,0,0,0
GALAXY 28 (G-28),2005-022A,2026-06-18T11:04:54.856128,1.00271106,.0002842,3.3016,78.9193,7.7048,319.2276,0,U,28702,999,5198,0,-.208E-5,0
GALAXY 16 (G-16),2006-023A,2026-06-18T15:52:24.762144,1.00271467,.000251,0.0108,96.8222,347.0208,322.1537,0,U,29236,999,7298,0,-.133E-5,0
DIRECTV 9S,2006-043A,2026-06-18T15:51:47.320704,1.00270968,.000497,2.4256,80.8851,13.4998,309.2610,0,U,29494,999,5139,0,-.12E-5,0
GALAXY 17 (G-17),2007-016B,2026-06-18T12:31:03.349056,1.00271658,.0004658,2.9764,79.8836,18.4949,271.1316,0,U,31307,999,6981,0,-.213E-5,0
INTELSAT 11 (IS-11),2007-044B,2026-06-18T14:58:08.936256,0.99050198,.0002428,3.5701,78.6527,88.8535,83.4456,0,U,32253,999,6846,0,-.215E-5,0
HORIZONS-2,2007-063B,2026-06-18T12:34:18.036768,1.00272958,.000385,2.6063,80.6082,358.1173,302.7926,0,U,32388,999,6782,0,-.261E-5,0
DIRECTV 11,2008-013A,2026-06-18T12:27:03.730752,1.00271979,.0000152,0.0096,269.4720,187.3657,257.5063,0,U,32729,999,4560,0,-.132E-5,0
GALAXY 18 (G-18),2008-024A,2026-06-18T15:45:32.920128,1.00270297,.0002786,0.0159,58.5793,26.7804,294.9187,0,U,32951,999,4586,0,.19E-6,0
INTELSAT 25 (IS-25),2008-034A,2026-06-18T16:24:54.200160,0.99034120,.0003444,2.7147,80.3557,60.5610,127.2162,0,U,33153,999,6570,0,-.185E-5,0
GALAXY 19 (G-19),2008-045A,2026-06-18T15:53:02.200992,1.00271177,.0002518,0.0324,263.5653,188.5280,316.0666,0,U,33376,999,6491,0,-.145E-5,0
FM-5,2009-034A,2026-06-18T12:30:48.373344,1.00277833,.0000622,0.0186,296.2063,11.6391,60.4535,0,U,35493,999,4665,0,-.207E-5,0
INTELSAT 14 (IS-14),2009-064A,2026-06-18T10:59:47.845824,1.00272000,.0002296,0.0119,310.1717,135.4044,301.0751,0,U,36097,999,6061,0,-.28E-5,0
INTELSAT 15 (IS-15),2009-067A,2026-06-18T15:02:14.040096,1.00272210,.0002115,0.0151,336.7829,110.5059,130.2753,0,U,36106,999,4124,0,-.191E-5,0
DIRECTV 12,2009-075A,2026-06-18T15:51:24.856704,1.00272181,.0000385,0.0434,170.9001,299.0990,292.0273,0,U,36131,999,4656,0,-.11E-5,0
INTELSAT 16 (IS-16),2010-006A,2026-06-18T12:33:33.108768,1.00272434,.0001928,0.0106,326.8305,134.2807,277.8288,0,U,36397,999,5966,0,-.251E-5,0
XM-5,2010-053A,2026-06-18T15:47:47.704128,1.00269942,.0002633,0.0617,273.0740,290.4585,185.1075,0,U,37185,999,5749,0,-.29E-6,0
INTELSAT 17 (IS-17),2010-065B,2026-06-18T16:28:39.184032,1.00271911,.0002599,0.0034,326.6852,132.0213,121.3749,0,U,37238,999,5326,0,-.8E-7,0
INTELSAT 28 (IS-28),2011-016A,2026-06-18T09:21:00.100800,1.00271560,.0003596,1.8103,82.6007,6.0263,286.5334,0,U,37392,999,5329,0,-.232E-5,0
INTELSAT 18 (IS-18),2011-056A,2026-06-18T15:29:19.473792,1.00270770,.0001718,0.0383,272.8978,174.3653,231.9404,0,U,37834,999,5382,0,.46E-6,0
INTELSAT 22 (IS-22),2012-011A,2026-06-18T11:33:14.637888,1.00272371,.0001541,0.0136,37.1505,53.9901,60.9919,0,U,38098,999,720,0,-.65E-6,0
INTELSAT 19 (IS-19),2012-030A,2026-06-18T14:55:38.653824,1.00271401,.000293,0.0188,3.0887,92.7218,200.9507,0,U,38356,999,5046,0,-.63E-6,0
INTELSAT 20 (IS-20),2012-043A,2026-06-18T13:14:36.671712,1.00270903,.000182,0.0365,68.9244,108.0346,356.9762,0,U,38740,999,5076,0,0,0
